{
  "type": "FeatureCollection",
  "features": [
    {
      "type": "Feature",
      "properties": {
        "norad_id": 34299,
        "name": "COSMOS 2251 DEB",
        "group": "cosmos-2251-debris",
        "lat": -67.77759876835408,
        "lon": -166.3064930561993,
        "alt_km": 352.3124805277339,
        "timestamp": "2025-12-15T04:01:20.845893+00:00",
        "meta_object_name": "COSMOS 2251 DEB",
        "meta_object_id": "1993-036MV",
        "meta_epoch": "2025-12-14T05:38:22.369632",
        "meta_mean_motion": 15.765285,
        "meta_eccentricity": 0.00174342,
        "meta_inclination": 73.9751,
        "meta_ra_of_asc_node": 331.1212,
        "meta_arg_of_pericenter": 61.8067,
        "meta_mean_anomaly": 298.4918,
        "meta_ephemeris_type": 0,
        "meta_classification_type": "U",
        "meta_norad_cat_id": 34299,
        "meta_element_set_no": 999,
        "meta_rev_at_epoch": 89034,
        "meta_bstar": 0.0066264586,
        "meta_mean_motion_dot": 0.01191227,
        "meta_mean_motion_ddot": 0,
        "tle_line1": "1 34299U 93036MV  25348.23498113  .01191227  00000+0  66265-2 0  9990",
        "tle_line2": "2 34299  73.9751 331.1212 0017434  61.8067 298.4918 15.76528500890345"
      },
      "geometry": {
        "type": "Point",
        "coordinates": [
          -166.3064930561993,
          -67.77759876835408
        ]
      }
    },
    {
      "type": "Feature",
      "properties": {
        "norad_id": 34301,
        "name": "COSMOS 2251 DEB",
        "group": "cosmos-2251-debris",
        "lat": -49.35680859792273,
        "lon": 1.398556398809006,
        "alt_km": 613.3124052012972,
        "timestamp": "2025-12-15T04:01:20.845903+00:00",
        "meta_object_name": "COSMOS 2251 DEB",
        "meta_object_id": "1993-036MX",
        "meta_epoch": "2025-12-13T22:33:15.303744",
        "meta_mean_motion": 14.84632645,
        "meta_eccentricity": 0.00112397,
        "meta_inclination": 74.0051,
        "meta_ra_of_asc_node": 164.3172,
        "meta_arg_of_pericenter": 225.161,
        "meta_mean_anomaly": 287.0488,
        "meta_ephemeris_type": 0,
        "meta_classification_type": "U",
        "meta_norad_cat_id": 34301,
        "meta_element_set_no": 999,
        "meta_rev_at_epoch": 88418,
        "meta_bstar": 0.0032969768,
        "meta_mean_motion_dot": 0.00027988,
        "meta_mean_motion_ddot": 0,
        "tle_line1": "1 34301U 93036MX  25347.93976046  .00027988  00000+0  32970-2 0  9993",
        "tle_line2": "2 34301  74.0051 164.3172 0011239 225.1610 287.0488 14.84632645884186"
      },
      "geometry": {
        "type": "Point",
        "coordinates": [
          1.398556398809006,
          -49.35680859792273
        ]
      }
    },
    {
      "type": "Feature",
      "properties": {
        "norad_id": 34302,
        "name": "COSMOS 2251 DEB",
        "group": "cosmos-2251-debris",
        "lat": -68.65847401047787,
        "lon": 72.60542479156997,
        "alt_km": 730.5350088845225,
        "timestamp": "2025-12-15T04:01:20.845914+00:00",
        "meta_object_name": "COSMOS 2251 DEB",
        "meta_object_id": "1993-036MY",
        "meta_epoch": "2025-12-14T08:28:59.063232",
        "meta_mean_motion": 14.39339461,
        "meta_eccentricity": 0.0078835,
        "meta_inclination": 74.178,
        "meta_ra_of_asc_node": 120.6272,
        "meta_arg_of_pericenter": 335.4162,
        "meta_mean_anomaly": 52.9384,
        "meta_ephemeris_type": 0,
        "meta_classification_type": "U",
        "meta_norad_cat_id": 34302,
        "meta_element_set_no": 999,
        "meta_rev_at_epoch": 87744,
        "meta_bstar": 0.00073214139,
        "meta_mean_motion_dot": 2.334e-05,
        "meta_mean_motion_ddot": 0,
        "tle_line1": "1 34302U 93036MY  25348.35346138  .00002334  00000+0  73214-3 0  9999",
        "tle_line2": "2 34302  74.1780 120.6272 0078835 335.4162  52.9384 14.39339461877440"
      },
      "geometry": {
        "type": "Point",
        "coordinates": [
          72.60542479156997,
          -68.65847401047787
        ]
      }
    },
    {
      "type": "Feature",
      "properties": {
        "norad_id": 34303,
        "name": "COSMOS 2251 DEB",
        "group": "cosmos-2251-debris",
        "lat": -56.13162659432212,
        "lon": 128.7402618175254,
        "alt_km": 813.435227316244,
        "timestamp": "2025-12-15T04:01:20.845924+00:00",
        "meta_object_name": "COSMOS 2251 DEB",
        "meta_object_id": "1993-036MZ",
        "meta_epoch": "2025-12-14T02:14:06.268704",
        "meta_mean_motion": 14.5447815,
        "meta_eccentricity": 0.01350724,
        "meta_inclination": 74.0052,
        "meta_ra_of_asc_node": 285.4757,
        "meta_arg_of_pericenter": 63.4881,
        "meta_mean_anomaly": 312.3405,
        "meta_ephemeris_type": 0,
        "meta_classification_type": "U",
        "meta_norad_cat_id": 34303,
        "meta_element_set_no": 999,
        "meta_rev_at_epoch": 87982,
        "meta_bstar": 0.0016223935,
        "meta_mean_motion_dot": 7.784e-05,
        "meta_mean_motion_ddot": 0,
        "tle_line1": "1 34303U 93036MZ  25348.09312811  .00007784  00000+0  16224-2 0  9993",
        "tle_line2": "2 34303  74.0052 285.4757 0135072  63.4881 312.3405 14.54478150879820"
      },
      "geometry": {
        "type": "Point",
        "coordinates": [
          128.7402618175254,
          -56.13162659432212
        ]
      }
    },
    {
      "type": "Feature",
      "properties": {
        "norad_id": 34304,
        "name": "COSMOS 2251 DEB",
        "group": "cosmos-2251-debris",
        "lat": -24.108466062638072,
        "lon": -54.51195172495652,
        "alt_km": 711.1514155071254,
        "timestamp": "2025-12-15T04:01:20.845934+00:00",
        "meta_object_name": "COSMOS 2251 DEB",
        "meta_object_id": "1993-036NA",
        "meta_epoch": "2025-12-14T02:49:55.991424",
        "meta_mean_motion": 14.37878027,
        "meta_eccentricity": 0.01289515,
        "meta_inclination": 74.0128,
        "meta_ra_of_asc_node": 120.0524,
        "meta_arg_of_pericenter": 257.5689,
        "meta_mean_anomaly": 277.6883,
        "meta_ephemeris_type": 0,
        "meta_classification_type": "U",
        "meta_norad_cat_id": 34304,
        "meta_element_set_no": 999,
        "meta_rev_at_epoch": 87316,
        "meta_bstar": 0.0016753227,
        "meta_mean_motion_dot": 5.541e-05,
        "meta_mean_motion_ddot": 0,
        "tle_line1": "1 34304U 93036NA  25348.11800916  .00005541  00000+0  16753-2 0  9991",
        "tle_line2": "2 34304  74.0128 120.0524 0128951 257.5689 277.6883 14.37878027873163"
      },
      "geometry": {
        "type": "Point",
        "coordinates": [
          -54.51195172495652,
          -24.108466062638072
        ]
      }
    },
    {
      "type": "Feature",
      "properties": {
        "norad_id": 34307,
        "name": "COSMOS 2251 DEB",
        "group": "cosmos-2251-debris",
        "lat": 35.42591666501076,
        "lon": -39.044961301645884,
        "alt_km": 1105.5516693704467,
        "timestamp": "2025-12-15T04:01:20.845944+00:00",
        "meta_object_name": "COSMOS 2251 DEB",
        "meta_object_id": "1993-036ND",
        "meta_epoch": "2025-12-13T15:27:02.071008",
        "meta_mean_motion": 13.54322102,
        "meta_eccentricity": 0.03920322,
        "meta_inclination": 74.0534,
        "meta_ra_of_asc_node": 311.6647,
        "meta_arg_of_pericenter": 142.4072,
        "meta_mean_anomaly": 32.4171,
        "meta_ephemeris_type": 0,
        "meta_classification_type": "U",
        "meta_norad_cat_id": 34307,
        "meta_element_set_no": 999,
        "meta_rev_at_epoch": 82874,
        "meta_bstar": 0.00082013934,
        "meta_mean_motion_dot": 8.94e-06,
        "meta_mean_motion_ddot": 0,
        "tle_line1": "1 34307U 93036ND  25347.64377397  .00000894  00000+0  82014-3 0  9993",
        "tle_line2": "2 34307  74.0534 311.6647 0392032 142.4072  32.4171 13.54322102828749"
      },
      "geometry": {
        "type": "Point",
        "coordinates": [
          -39.044961301645884,
          35.42591666501076
        ]
      }
    },
    {
      "type": "Feature",
      "properties": {
        "norad_id": 34313,
        "name": "COSMOS 2251 DEB",
        "group": "cosmos-2251-debris",
        "lat": -10.066211900998237,
        "lon": 123.31520288107403,
        "alt_km": 513.933598670722,
        "timestamp": "2025-12-15T04:01:20.845955+00:00",
        "meta_object_name": "COSMOS 2251 DEB",
        "meta_object_id": "1993-036NK",
        "meta_epoch": "2025-12-14T06:38:49.458912",
        "meta_mean_motion": 15.19446494,
        "meta_eccentricity": 0.00113328,
        "meta_inclination": 73.9724,
        "meta_ra_of_asc_node": 302.262,
        "meta_arg_of_pericenter": 79.5331,
        "meta_mean_anomaly": 280.7143,
        "meta_ephemeris_type": 0,
        "meta_classification_type": "U",
        "meta_norad_cat_id": 34313,
        "meta_element_set_no": 999,
        "meta_rev_at_epoch": 89088,
        "meta_bstar": 0.0046237196,
        "meta_mean_motion_dot": 0.00099519,
        "meta_mean_motion_ddot": 0,
        "tle_line1": "1 34313U 93036NK  25348.27696133  .00099519  00000+0  46237-2 0  9990",
        "tle_line2": "2 34313  73.9724 302.2620 0011332  79.5331 280.7143 15.19446494890886"
      },
      "geometry": {
        "type": "Point",
        "coordinates": [
          123.31520288107403,
          -10.066211900998237
        ]
      }
    }
  ]
}